{
    "links": {
        "self": "http://www.neowsapp.com/rest/v1/neo/3443813?api_key=iIulBulltgU6a56xZRHN4H3l9WmuAYTsLGpBGhQ2"
    },
    "id": "3443813",
    "neo_reference_id": "3443813",
    "name": "(2009 AN)",
    "designation": "2009 AN",
    "nasa_jpl_url": "http://ssd.jpl.nasa.gov/sbdb.cgi?sstr=3443813",
    "absolute_magnitude_h": 20.6,
    "estimated_diameter": {
        "kilometers": {
            "estimated_diameter_min": 0.2016299194,
            "estimated_diameter_max": 0.4508582062
        },
        "meters": {
            "estimated_diameter_min": 201.6299194428,
            "estimated_diameter_max": 450.8582061718
        },
        "miles": {
            "estimated_diameter_min": 0.1252869847,
            "estimated_diameter_max": 0.2801502144
        },
        "feet": {
            "estimated_diameter_min": 661.5155049046,
            "estimated_diameter_max": 1479.1936371367
        }
    },
    "is_potentially_hazardous_asteroid": false,
    "close_approach_data": [
        {
            "close_approach_date": "2008-08-30",
            "close_approach_date_full": "2008-Aug-30 21:56",
            "epoch_date_close_approach": 1220133360000,
            "relative_velocity": {
                "kilometers_per_second": "14.6043416822",
                "kilometers_per_hour": "52575.6300558221",
                "miles_per_hour": "32668.4519088523"
            },
            "miss_distance": {
                "astronomical": "0.3609673864",
                "lunar": "140.4163133096",
                "kilometers": "53999952.144906968",
                "miles": "33554014.3425254384"
            },
            "orbiting_body": "Earth"
        },
        {
            "close_approach_date": "2008-12-12",
            "close_approach_date_full": "2008-Dec-12 13:09",
            "epoch_date_close_approach": 1229087340000,
            "relative_velocity": {
                "kilometers_per_second": "10.7012595625",
                "kilometers_per_hour": "38524.5344250626",
                "miles_per_hour": "23937.6475153952"
            },
            "miss_distance": {
                "astronomical": "0.4041151132",
                "lunar": "157.2007790348",
                "kilometers": "60454760.169528884",
                "miles": "37564846.0642872392"
            },
            "orbiting_body": "Earth"
        }
    ],
    "orbital_data": {
        "orbit_id": "11",
        "orbit_determination_date": "2017-04-06 09:01:43",
        "first_observation_date": "2009-01-01",
        "last_observation_date": "2009-01-30",
        "data_arc_in_days": 29,
        "observations_used": 29,
        "orbit_uncertainty": "7",
        "minimum_orbit_intersection": ".282291",
        "jupiter_tisserand_invariant": "3.198",
        "epoch_osculation": "2459000.5",
        "eccentricity": ".5716646142958484",
        "semi_major_axis": "2.409636139335213",
        "inclination": "21.57360535612227",
        "ascending_node_longitude": "293.2196460238601",
        "orbital_period": "1366.235698733364",
        "perihelion_distance": "1.032132425148811",
        "perihelion_argument": "100.1561532729486",
        "aphelion_distance": "3.787139853521614",
        "perihelion_time": "2458852.788331099353",
        "mean_anomaly": "38.92168888101272",
        "mean_motion": ".2634977261491231",
        "equinox": "J2000",
        "orbit_class": {
            "orbit_class_type": "AMO",
            "orbit_class_description": "Near-Earth asteroid orbits similar to that of 1221 Amor",
            "orbit_class_range": "1.017 AU < q (perihelion) < 1.3 AU"
        }
    },
    "is_sentry_object": false
}